CCSDS_OMM_VERS = 2.0
CREATION_DATE  = 
ORIGINATOR     = 

OBJECT_NAME    = SL-16 R/B
OBJECT_ID      = 1993-016B
CENTER_NAME    = EARTH
REF_FRAME      = TEME
TIME_SYSTEM    = UTC
MEAN_ELEMENT_THEORY = SGP/SGP4

EPOCH          = 2026-01-09T08:09:53.202240
MEAN_MOTION    = 14.15295498
ECCENTRICITY   = .00083861
INCLINATION    = 71.0089
RA_OF_ASC_NODE = 339.8333
ARG_OF_PERICENTER = 42.9500
MEAN_ANOMALY   = 317.2277

EPHEMERIS_TYPE = 0
CLASSIFICATION_TYPE = U
NORAD_CAT_ID   = 22566
ELEMENT_SET_NO = 999
REV_AT_EPOCH   = 69377
BSTAR          = -.84546329E-4
MEAN_MOTION_DOT = -.212E-5
MEAN_MOTION_DDOT = 0

CCSDS_OMM_VERS = 2.0
CREATION_DATE  = 
ORIGINATOR     = 

OBJECT_NAME    = COSMOS 2242
OBJECT_ID      = 1993-024A
CENTER_NAME    = EARTH
REF_FRAME      = TEME
TIME_SYSTEM    = UTC
MEAN_ELEMENT_THEORY = SGP/SGP4

EPOCH          = 2026-01-09T14:11:20.531904
MEAN_MOTION    = 14.96253499
ECCENTRICITY   = .00174122
INCLINATION    = 82.5208
RA_OF_ASC_NODE = 323.2226
ARG_OF_PERICENTER = 139.0171
MEAN_ANOMALY   = 221.2364

EPHEMERIS_TYPE = 0
CLASSIFICATION_TYPE = U
NORAD_CAT_ID   = 22626
ELEMENT_SET_NO = 999
REV_AT_EPOCH   = 77155
BSTAR          = .21495231E-3
MEAN_MOTION_DOT = .2459E-4
MEAN_MOTION_DDOT = 0

CCSDS_OMM_VERS = 2.0
CREATION_DATE  = 
ORIGINATOR     = 

OBJECT_NAME    = SL-16 R/B
OBJECT_ID      = 1993-059B
CENTER_NAME    = EARTH
REF_FRAME      = TEME
TIME_SYSTEM    = UTC
MEAN_ELEMENT_THEORY = SGP/SGP4

EPOCH          = 2026-01-09T14:41:13.877088
MEAN_MOTION    = 14.17218857
ECCENTRICITY   = .00192432
INCLINATION    = 70.9903
RA_OF_ASC_NODE = 135.7120
ARG_OF_PERICENTER = 296.6640
MEAN_ANOMALY   = 63.2513

EPHEMERIS_TYPE = 0
CLASSIFICATION_TYPE = U
NORAD_CAT_ID   = 22803
ELEMENT_SET_NO = 999
REV_AT_EPOCH   = 67116
BSTAR          = .39880365E-4
MEAN_MOTION_DOT = .32E-6
MEAN_MOTION_DDOT = 0

CCSDS_OMM_VERS = 2.0
CREATION_DATE  = 
ORIGINATOR     = 

OBJECT_NAME    = ARIANE 40 R/B
OBJECT_ID      = 1993-061H
CENTER_NAME    = EARTH
REF_FRAME      = TEME
TIME_SYSTEM    = UTC
MEAN_ELEMENT_THEORY = SGP/SGP4

EPOCH          = 2026-01-09T14:54:38.826144
MEAN_MOTION    = 14.32823281
ECCENTRICITY   = .00118246
INCLINATION    = 98.5033
RA_OF_ASC_NODE = 79.6386
ARG_OF_PERICENTER = 99.1266
MEAN_ANOMALY   = 261.1257

EPHEMERIS_TYPE = 0
CLASSIFICATION_TYPE = U
NORAD_CAT_ID   = 22830
ELEMENT_SET_NO = 999
REV_AT_EPOCH   = 68564
BSTAR          = .1166387E-3
MEAN_MOTION_DOT = .275E-5
MEAN_MOTION_DDOT = 0

CCSDS_OMM_VERS = 2.0
CREATION_DATE  = 
ORIGINATOR     = 

OBJECT_NAME    = COSMOS 2278
OBJECT_ID      = 1994-023A
CENTER_NAME    = EARTH
REF_FRAME      = TEME
TIME_SYSTEM    = UTC
MEAN_ELEMENT_THEORY = SGP/SGP4

EPOCH          = 2026-01-09T13:01:56.164224
MEAN_MOTION    = 14.14360729
ECCENTRICITY   = .00070247
INCLINATION    = 71.0550
RA_OF_ASC_NODE = 298.8415
ARG_OF_PERICENTER = 128.2451
MEAN_ANOMALY   = 231.9305

EPHEMERIS_TYPE = 0
CLASSIFICATION_TYPE = U
NORAD_CAT_ID   = 23087
ELEMENT_SET_NO = 999
REV_AT_EPOCH   = 63644
BSTAR          = .22507909E-3
MEAN_MOTION_DOT = .384E-5
MEAN_MOTION_DDOT = 0

CCSDS_OMM_VERS = 2.0
CREATION_DATE  = 
ORIGINATOR     = 

OBJECT_NAME    = SL-16 R/B
OBJECT_ID      = 1994-023B
CENTER_NAME    = EARTH
REF_FRAME      = TEME
TIME_SYSTEM    = UTC
MEAN_ELEMENT_THEORY = SGP/SGP4

EPOCH          = 2026-01-09T14:47:31.156512
MEAN_MOTION    = 14.15002651
ECCENTRICITY   = .00029163
INCLINATION    = 70.9983
RA_OF_ASC_NODE = 194.9445
ARG_OF_PERICENTER = 347.7657
MEAN_ANOMALY   = 12.3394

EPHEMERIS_TYPE = 0
CLASSIFICATION_TYPE = U
NORAD_CAT_ID   = 23088
ELEMENT_SET_NO = 999
REV_AT_EPOCH   = 63773
BSTAR          = .19720887E-3
MEAN_MOTION_DOT = .334E-5
MEAN_MOTION_DDOT = 0

CCSDS_OMM_VERS = 2.0
CREATION_DATE  = 
ORIGINATOR     = 

OBJECT_NAME    = SL-16 R/B
OBJECT_ID      = 1994-074B
CENTER_NAME    = EARTH
REF_FRAME      = TEME
TIME_SYSTEM    = UTC
MEAN_ELEMENT_THEORY = SGP/SGP4

EPOCH          = 2026-01-09T14:53:10.192704
MEAN_MOTION    = 14.79328343
ECCENTRICITY   = .00078306
INCLINATION    = 97.7175
RA_OF_ASC_NODE = 42.8129
ARG_OF_PERICENTER = 60.3914
MEAN_ANOMALY   = 53.2104

EPHEMERIS_TYPE = 0
CLASSIFICATION_TYPE = U
NORAD_CAT_ID   = 23343
ELEMENT_SET_NO = 999
REV_AT_EPOCH   = 67851
BSTAR          = .76431597E-4
MEAN_MOTION_DOT = .52E-5
MEAN_MOTION_DDOT = 0

CCSDS_OMM_VERS = 2.0
CREATION_DATE  = 
ORIGINATOR     = 

OBJECT_NAME    = SL-16 R/B
OBJECT_ID      = 1994-077B
CENTER_NAME    = EARTH
REF_FRAME      = TEME
TIME_SYSTEM    = UTC
MEAN_ELEMENT_THEORY = SGP/SGP4

EPOCH          = 2026-01-09T14:54:13.848768
MEAN_MOTION    = 14.15551758
ECCENTRICITY   = .00048526
INCLINATION    = 70.9829
RA_OF_ASC_NODE = 116.7601
ARG_OF_PERICENTER = 261.4616
MEAN_ANOMALY   = 98.5957

EPHEMERIS_TYPE = 0
CLASSIFICATION_TYPE = U
NORAD_CAT_ID   = 23405
ELEMENT_SET_NO = 999
REV_AT_EPOCH   = 60787
BSTAR          = .14610916E-3
MEAN_MOTION_DOT = .238E-5
MEAN_MOTION_DDOT = 0

CCSDS_OMM_VERS = 2.0
CREATION_DATE  = 
ORIGINATOR     = 

OBJECT_NAME    = ARIANE 40+ R/B
OBJECT_ID      = 1995-021B
CENTER_NAME    = EARTH
REF_FRAME      = TEME
TIME_SYSTEM    = UTC
MEAN_ELEMENT_THEORY = SGP/SGP4

EPOCH          = 2026-01-09T10:58:02.191584
MEAN_MOTION    = 14.39721142
ECCENTRICITY   = .00059994
INCLINATION    = 98.4612
RA_OF_ASC_NODE = 81.7068
ARG_OF_PERICENTER = 326.9235
MEAN_ANOMALY   = 44.4593

EPHEMERIS_TYPE = 0
CLASSIFICATION_TYPE = U
NORAD_CAT_ID   = 23561
ELEMENT_SET_NO = 999
REV_AT_EPOCH   = 61072
BSTAR          = .12223578E-3
MEAN_MOTION_DOT = .339E-5
MEAN_MOTION_DDOT = 0

CCSDS_OMM_VERS = 2.0
CREATION_DATE  = 
ORIGINATOR     = 

OBJECT_NAME    = SL-16 R/B
OBJECT_ID      = 1995-058B
CENTER_NAME    = EARTH
REF_FRAME      = TEME
TIME_SYSTEM    = UTC
MEAN_ELEMENT_THEORY = SGP/SGP4

EPOCH          = 2026-01-09T13:18:19.954368
MEAN_MOTION    = 14.15488560
ECCENTRICITY   = .00139127
INCLINATION    = 71.0230
RA_OF_ASC_NODE = 304.4076
ARG_OF_PERICENTER = 218.0256
MEAN_ANOMALY   = 141.9886

EPHEMERIS_TYPE = 0
CLASSIFICATION_TYPE = U
NORAD_CAT_ID   = 23705
ELEMENT_SET_NO = 999
REV_AT_EPOCH   = 55948
BSTAR          = .1476332E-3
MEAN_MOTION_DOT = .241E-5
MEAN_MOTION_DDOT = 0

CCSDS_OMM_VERS = 2.0
CREATION_DATE  = 
ORIGINATOR     = 

OBJECT_NAME    = SL-16 R/B
OBJECT_ID      = 1996-051B
CENTER_NAME    = EARTH
REF_FRAME      = TEME
TIME_SYSTEM    = UTC
MEAN_ELEMENT_THEORY = SGP/SGP4

EPOCH          = 2026-01-09T12:49:12.070272
MEAN_MOTION    = 14.12400217
ECCENTRICITY   = .00191976
INCLINATION    = 70.7598
RA_OF_ASC_NODE = 300.4514
ARG_OF_PERICENTER = 227.2157
MEAN_ANOMALY   = 132.7348

EPHEMERIS_TYPE = 0
CLASSIFICATION_TYPE = U
NORAD_CAT_ID   = 24298
ELEMENT_SET_NO = 999
REV_AT_EPOCH   = 51329
BSTAR          = .40726292E-4
MEAN_MOTION_DOT = .26E-6
MEAN_MOTION_DDOT = 0

CCSDS_OMM_VERS = 2.0
CREATION_DATE  = 
ORIGINATOR     = 

OBJECT_NAME    = ORBVIEW 2 (SEASTAR)
OBJECT_ID      = 1997-037A
CENTER_NAME    = EARTH
REF_FRAME      = TEME
TIME_SYSTEM    = UTC
MEAN_ELEMENT_THEORY = SGP/SGP4

EPOCH          = 2026-01-09T10:46:24.025152
MEAN_MOTION    = 14.35442277
ECCENTRICITY   = .00015664
INCLINATION    = 98.8475
RA_OF_ASC_NODE = 172.2245
ARG_OF_PERICENTER = 213.2237
MEAN_ANOMALY   = 146.8850

EPHEMERIS_TYPE = 0
CLASSIFICATION_TYPE = U
NORAD_CAT_ID   = 24883
ELEMENT_SET_NO = 999
REV_AT_EPOCH   = 49997
BSTAR          = .14018951E-3
MEAN_MOTION_DOT = .356E-5
MEAN_MOTION_DDOT = 0

