SL-16 R/B               
1 22566U 93016B   26009.34019910 -.00000212  00000+0 -84546-4 0  9991
2 22566  71.0089 339.8333 0008386  42.9500 317.2277 14.15295498693774
COSMOS 2242             
1 22626U 93024A   26009.59120986  .00002459  00000+0  21495-3 0  9996
2 22626  82.5208 323.2226 0017412 139.0171 221.2364 14.96253499771559
SL-16 R/B               
1 22803U 93059B   26009.61196617  .00000032  00000+0  39880-4 0  9991
2 22803  70.9903 135.7120 0019243 296.6640  63.2513 14.17218857671161
ARIANE 40 R/B           
1 22830U 93061H   26009.62128271  .00000275  00000+0  11664-3 0  9994
2 22830  98.5033  79.6386 0011824  99.1266 261.1257 14.32823281685640
COSMOS 2278             
1 23087U 94023A   26009.54301116  .00000384  00000+0  22508-3 0  9990
2 23087  71.0550 298.8415 0007024 128.2451 231.9305 14.14360729636446
SL-16 R/B               
1 23088U 94023B   26009.61633283  .00000334  00000+0  19721-3 0  9990
2 23088  70.9983 194.9445 0002916 347.7657  12.3394 14.15002651637735
SL-16 R/B               
1 23343U 94074B   26009.62025686  .00000520  00000+0  76432-4 0  9993
2 23343  97.7175  42.8129 0007830  60.3914  53.2104 14.79328343678516
SL-16 R/B               
1 23405U 94077B   26009.62099362  .00000238  00000+0  14611-3 0  9993
2 23405  70.9829 116.7601 0004852 261.4616  98.5957 14.15551758607871
ARIANE 40+ R/B          
1 23561U 95021B   26009.45696981  .00000339  00000+0  12224-3 0  9997
2 23561  98.4612  81.7068 0005999 326.9235  44.4593 14.39721142610720
SL-16 R/B               
1 23705U 95058B   26009.55439762  .00000241  00000+0  14763-3 0  9992
2 23705  71.0230 304.4076 0013912 218.0256 141.9886 14.15488560559486
SL-16 R/B               
1 24298U 96051B   26009.53416748  .00000026  00000+0  40726-4 0  9991
2 24298  70.7598 300.4514 0019197 227.2157 132.7348 14.12400217513293
ORBVIEW 2 (SEASTAR)     
1 24883U 97037A   26009.44888918  .00000356  00000+0  14019-3 0  9999
2 24883  98.8475 172.2245 0001566 213.2237 146.8850 14.35442277499978
